[{"OBJECT_NAME":"NETSAT-1","OBJECT_ID":"2020-068W","EPOCH":"2026-03-09T22:42:38.711232","MEAN_MOTION":15.32042482,"ECCENTRICITY":0.00057337,"INCLINATION":97.8751,"RA_OF_ASC_NODE":63.2583,"ARG_OF_PERICENTER":18.5877,"MEAN_ANOMALY":341.5572,"EPHEMERIS_TYPE":0,"CLASSIFICATION_TYPE":"U","NORAD_CAT_ID":46506,"ELEMENT_SET_NO":999,"REV_AT_EPOCH":30009,"BSTAR":0.00059222329,"MEAN_MOTION_DOT":0.00018269,"MEAN_MOTION_DDOT":0},{"OBJECT_NAME":"STARLINK-31358","OBJECT_ID":"2024-031N","EPOCH":"2026-03-09T20:41:18.660192","MEAN_MOTION":15.30215488,"ECCENTRICITY":0.00011369,"INCLINATION":53.1603,"RA_OF_ASC_NODE":295.5891,"ARG_OF_PERICENTER":106.8746,"MEAN_ANOMALY":253.2379,"EPHEMERIS_TYPE":0,"CLASSIFICATION_TYPE":"U","NORAD_CAT_ID":58977,"ELEMENT_SET_NO":999,"REV_AT_EPOCH":11654,"BSTAR":0.00025656973,"MEAN_MOTION_DOT":7.251e-5,"MEAN_MOTION_DDOT":0}]
